<?xml version="1.0" encoding="UTF-8"?>
<ndm xmlns:xsi="http://www.w3.org/2001/XMLSchema-instance" xsi:noNamespaceSchemaLocation="https://sanaregistry.org/r/ndmxml_unqualified/ndmxml-2.0.0-master-2.0.xsd">
<omm id="CCSDS_OMM_VERS" version="2.0">
<header><CREATION_DATE/><ORIGINATOR/></header><body><segment><metadata><OBJECT_NAME>ONEWEB-0660</OBJECT_NAME><OBJECT_ID>2023-029AA</OBJECT_ID><CENTER_NAME>EARTH</CENTER_NAME><REF_FRAME>TEME</REF_FRAME><TIME_SYSTEM>UTC</TIME_SYSTEM><MEAN_ELEMENT_THEORY>SGP4</MEAN_ELEMENT_THEORY></metadata><data><meanElements><EPOCH>2023-10-01T19:42:52.895520</EPOCH><MEAN_MOTION>13.14505792</MEAN_MOTION><ECCENTRICITY>.0002413</ECCENTRICITY><INCLINATION>87.8989</INCLINATION><RA_OF_ASC_NODE>126.6115</RA_OF_ASC_NODE><ARG_OF_PERICENTER>82.7342</ARG_OF_PERICENTER><MEAN_ANOMALY>277.4062</MEAN_ANOMALY></meanElements><tleParameters><EPHEMERIS_TYPE>0</EPHEMERIS_TYPE><CLASSIFICATION_TYPE>U</CLASSIFICATION_TYPE><NORAD_CAT_ID>55820</NORAD_CAT_ID><ELEMENT_SET_NO>999</ELEMENT_SET_NO><REV_AT_EPOCH>2942</REV_AT_EPOCH><BSTAR>.5798E-3</BSTAR><MEAN_MOTION_DOT>.228E-5</MEAN_MOTION_DOT><MEAN_MOTION_DDOT>0</MEAN_MOTION_DDOT></tleParameters></data></segment></body></omm>
<omm id="CCSDS_OMM_VERS" version="2.0">
<header><CREATION_DATE/><ORIGINATOR/></header><body><segment><metadata><OBJECT_NAME>ONEWEB-0661</OBJECT_NAME><OBJECT_ID>2023-029AB</OBJECT_ID><CENTER_NAME>EARTH</CENTER_NAME><REF_FRAME>TEME</REF_FRAME><TIME_SYSTEM>UTC</TIME_SYSTEM><MEAN_ELEMENT_THEORY>SGP4</MEAN_ELEMENT_THEORY></metadata><data><meanElements><EPOCH>2023-10-01T20:37:41.081664</EPOCH><MEAN_MOTION>13.14518190</MEAN_MOTION><ECCENTRICITY>.0002193</ECCENTRICITY><INCLINATION>87.8967</INCLINATION><RA_OF_ASC_NODE>126.6760</RA_OF_ASC_NODE><ARG_OF_PERICENTER>89.0501</ARG_OF_PERICENTER><MEAN_ANOMALY>271.0880</MEAN_ANOMALY></meanElements><tleParameters><EPHEMERIS_TYPE>0</EPHEMERIS_TYPE><CLASSIFICATION_TYPE>U</CLASSIFICATION_TYPE><NORAD_CAT_ID>55821</NORAD_CAT_ID><ELEMENT_SET_NO>999</ELEMENT_SET_NO><REV_AT_EPOCH>2941</REV_AT_EPOCH><BSTAR>-.10736E-1</BSTAR><MEAN_MOTION_DOT>-.3967E-4</MEAN_MOTION_DOT><MEAN_MOTION_DDOT>0</MEAN_MOTION_DDOT></tleParameters></data></segment></body></omm>
<omm id="CCSDS_OMM_VERS" version="2.0">
<header><CREATION_DATE/><ORIGINATOR/></header><body><segment><metadata><OBJECT_NAME>ONEWEB-0662</OBJECT_NAME><OBJECT_ID>2023-029AC</OBJECT_ID><CENTER_NAME>EARTH</CENTER_NAME><REF_FRAME>TEME</REF_FRAME><TIME_SYSTEM>UTC</TIME_SYSTEM><MEAN_ELEMENT_THEORY>SGP4</MEAN_ELEMENT_THEORY></metadata><data><meanElements><EPOCH>2023-10-02T02:55:13.052640</EPOCH><MEAN_MOTION>13.14503147</MEAN_MOTION><ECCENTRICITY>.000225</ECCENTRICITY><INCLINATION>87.8986</INCLINATION><RA_OF_ASC_NODE>126.6316</RA_OF_ASC_NODE><ARG_OF_PERICENTER>78.6595</ARG_OF_PERICENTER><MEAN_ANOMALY>281.4788</MEAN_ANOMALY></meanElements><tleParameters><EPHEMERIS_TYPE>0</EPHEMERIS_TYPE><CLASSIFICATION_TYPE>U</CLASSIFICATION_TYPE><NORAD_CAT_ID>55822</NORAD_CAT_ID><ELEMENT_SET_NO>999</ELEMENT_SET_NO><REV_AT_EPOCH>3020</REV_AT_EPOCH><BSTAR>.88905E-3</BSTAR><MEAN_MOTION_DOT>.342E-5</MEAN_MOTION_DOT><MEAN_MOTION_DDOT>0</MEAN_MOTION_DDOT></tleParameters></data></segment></body></omm>
<omm id="CCSDS_OMM_VERS" version="2.0">
<header><CREATION_DATE/><ORIGINATOR/></header><body><segment><metadata><OBJECT_NAME>ONEWEB-0663</OBJECT_NAME><OBJECT_ID>2023-029AD</OBJECT_ID><CENTER_NAME>EARTH</CENTER_NAME><REF_FRAME>TEME</REF_FRAME><TIME_SYSTEM>UTC</TIME_SYSTEM><MEAN_ELEMENT_THEORY>SGP4</MEAN_ELEMENT_THEORY></metadata><data><meanElements><EPOCH>2023-10-02T14:00:01.000224</EPOCH><MEAN_MOTION>13.82052489</MEAN_MOTION><ECCENTRICITY>.0002607</ECCENTRICITY><INCLINATION>87.3527</INCLINATION><RA_OF_ASC_NODE>112.2738</RA_OF_ASC_NODE><ARG_OF_PERICENTER>85.7820</ARG_OF_PERICENTER><MEAN_ANOMALY>195.4221</MEAN_ANOMALY></meanElements><tleParameters><EPHEMERIS_TYPE>0</EPHEMERIS_TYPE><CLASSIFICATION_TYPE>U</CLASSIFICATION_TYPE><NORAD_CAT_ID>55823</NORAD_CAT_ID><ELEMENT_SET_NO>999</ELEMENT_SET_NO><REV_AT_EPOCH>3122</REV_AT_EPOCH><BSTAR>0</BSTAR><MEAN_MOTION_DOT>.16E-6</MEAN_MOTION_DOT><MEAN_MOTION_DDOT>0</MEAN_MOTION_DDOT></tleParameters></data></segment></body></omm>
<omm id="CCSDS_OMM_VERS" version="2.0">
<header><CREATION_DATE/><ORIGINATOR/></header><body><segment><metadata><OBJECT_NAME>ONEWEB-0664</OBJECT_NAME><OBJECT_ID>2023-029AE</OBJECT_ID><CENTER_NAME>EARTH</CENTER_NAME><REF_FRAME>TEME</REF_FRAME><TIME_SYSTEM>UTC</TIME_SYSTEM><MEAN_ELEMENT_THEORY>SGP4</MEAN_ELEMENT_THEORY></metadata><data><meanElements><EPOCH>2023-10-02T14:00:01.000224</EPOCH><MEAN_MOTION>13.82412013</MEAN_MOTION><ECCENTRICITY>.0002926</ECCENTRICITY><INCLINATION>87.3517</INCLINATION><RA_OF_ASC_NODE>112.2820</RA_OF_ASC_NODE><ARG_OF_PERICENTER>72.5887</ARG_OF_PERICENTER><MEAN_ANOMALY>86.7504</MEAN_ANOMALY></meanElements><tleParameters><EPHEMERIS_TYPE>0</EPHEMERIS_TYPE><CLASSIFICATION_TYPE>U</CLASSIFICATION_TYPE><NORAD_CAT_ID>55824</NORAD_CAT_ID><ELEMENT_SET_NO>999</ELEMENT_SET_NO><REV_AT_EPOCH>3122</REV_AT_EPOCH><BSTAR>-.98369E+0</BSTAR><MEAN_MOTION_DOT>-.1004926E-1</MEAN_MOTION_DOT><MEAN_MOTION_DDOT>0</MEAN_MOTION_DDOT></tleParameters></data></segment></body></omm>
<omm id="CCSDS_OMM_VERS" version="2.0">
<header><CREATION_DATE/><ORIGINATOR/></header><body><segment><metadata><OBJECT_NAME>ONEWEB-0665</OBJECT_NAME><OBJECT_ID>2023-029AF</OBJECT_ID><CENTER_NAME>EARTH</CENTER_NAME><REF_FRAME>TEME</REF_FRAME><TIME_SYSTEM>UTC</TIME_SYSTEM><MEAN_ELEMENT_THEORY>SGP4</MEAN_ELEMENT_THEORY></metadata><data><meanElements><EPOCH>2023-10-01T20:31:35.689152</EPOCH><MEAN_MOTION>13.14507889</MEAN_MOTION><ECCENTRICITY>.0002227</ECCENTRICITY><INCLINATION>87.8965</INCLINATION><RA_OF_ASC_NODE>126.6524</RA_OF_ASC_NODE><ARG_OF_PERICENTER>80.7335</ARG_OF_PERICENTER><MEAN_ANOMALY>279.4046</MEAN_ANOMALY></meanElements><tleParameters><EPHEMERIS_TYPE>0</EPHEMERIS_TYPE><CLASSIFICATION_TYPE>U</CLASSIFICATION_TYPE><NORAD_CAT_ID>55825</NORAD_CAT_ID><ELEMENT_SET_NO>999</ELEMENT_SET_NO><REV_AT_EPOCH>2943</REV_AT_EPOCH><BSTAR>-.53823E-3</BSTAR><MEAN_MOTION_DOT>-.187E-5</MEAN_MOTION_DOT><MEAN_MOTION_DDOT>0</MEAN_MOTION_DDOT></tleParameters></data></segment></body></omm>
<omm id="CCSDS_OMM_VERS" version="2.0">
<header><CREATION_DATE/><ORIGINATOR/></header><body><segment><metadata><OBJECT_NAME>ONEWEB-0666</OBJECT_NAME><OBJECT_ID>2023-029AG</OBJECT_ID><CENTER_NAME>EARTH</CENTER_NAME><REF_FRAME>TEME</REF_FRAME><TIME_SYSTEM>UTC</TIME_SYSTEM><MEAN_ELEMENT_THEORY>SGP4</MEAN_ELEMENT_THEORY></metadata><data><meanElements><EPOCH>2023-10-02T14:00:01.000224</EPOCH><MEAN_MOTION>13.83404315</MEAN_MOTION><ECCENTRICITY>.0003464</ECCENTRICITY><INCLINATION>87.3547</INCLINATION><RA_OF_ASC_NODE>112.2894</RA_OF_ASC_NODE><ARG_OF_PERICENTER>53.9404</ARG_OF_PERICENTER><MEAN_ANOMALY>288.0613</MEAN_ANOMALY></meanElements><tleParameters><EPHEMERIS_TYPE>0</EPHEMERIS_TYPE><CLASSIFICATION_TYPE>U</CLASSIFICATION_TYPE><NORAD_CAT_ID>55826</NORAD_CAT_ID><ELEMENT_SET_NO>999</ELEMENT_SET_NO><REV_AT_EPOCH>3122</REV_AT_EPOCH><BSTAR>-.99876E+0</BSTAR><MEAN_MOTION_DOT>-.1035829E-1</MEAN_MOTION_DOT><MEAN_MOTION_DDOT>0</MEAN_MOTION_DDOT></tleParameters></data></segment></body></omm>
<omm id="CCSDS_OMM_VERS" version="2.0">
<header><CREATION_DATE/><ORIGINATOR/></header><body><segment><metadata><OBJECT_NAME>ONEWEB-0667</OBJECT_NAME><OBJECT_ID>2023-029AH</OBJECT_ID><CENTER_NAME>EARTH</CENTER_NAME><REF_FRAME>TEME</REF_FRAME><TIME_SYSTEM>UTC</TIME_SYSTEM><MEAN_ELEMENT_THEORY>SGP4</MEAN_ELEMENT_THEORY></metadata><data><meanElements><EPOCH>2023-10-02T06:00:00.999648</EPOCH><MEAN_MOTION>13.86555324</MEAN_MOTION><ECCENTRICITY>.0002373</ECCENTRICITY><INCLINATION>87.3125</INCLINATION><RA_OF_ASC_NODE>112.4481</RA_OF_ASC_NODE><ARG_OF_PERICENTER>95.8190</ARG_OF_PERICENTER><MEAN_ANOMALY>90.7716</MEAN_ANOMALY></meanElements><tleParameters><EPHEMERIS_TYPE>0</EPHEMERIS_TYPE><CLASSIFICATION_TYPE>U</CLASSIFICATION_TYPE><NORAD_CAT_ID>55827</NORAD_CAT_ID><ELEMENT_SET_NO>999</ELEMENT_SET_NO><REV_AT_EPOCH>3117</REV_AT_EPOCH><BSTAR>-.96635E+0</BSTAR><MEAN_MOTION_DOT>-.1056182E-1</MEAN_MOTION_DOT><MEAN_MOTION_DDOT>0</MEAN_MOTION_DDOT></tleParameters></data></segment></body></omm>
<omm id="CCSDS_OMM_VERS" version="2.0">
<header><CREATION_DATE/><ORIGINATOR/></header><body><segment><metadata><OBJECT_NAME>ONEWEB-0669</OBJECT_NAME><OBJECT_ID>2023-029AJ</OBJECT_ID><CENTER_NAME>EARTH</CENTER_NAME><REF_FRAME>TEME</REF_FRAME><TIME_SYSTEM>UTC</TIME_SYSTEM><MEAN_ELEMENT_THEORY>SGP4</MEAN_ELEMENT_THEORY></metadata><data><meanElements><EPOCH>2023-10-02T14:00:01.000224</EPOCH><MEAN_MOTION>13.82767738</MEAN_MOTION><ECCENTRICITY>.0003023</ECCENTRICITY><INCLINATION>87.3497</INCLINATION><RA_OF_ASC_NODE>112.2630</RA_OF_ASC_NODE><ARG_OF_PERICENTER>57.1597</ARG_OF_PERICENTER><MEAN_ANOMALY>270.0640</MEAN_ANOMALY></meanElements><tleParameters><EPHEMERIS_TYPE>0</EPHEMERIS_TYPE><CLASSIFICATION_TYPE>U</CLASSIFICATION_TYPE><NORAD_CAT_ID>55828</NORAD_CAT_ID><ELEMENT_SET_NO>999</ELEMENT_SET_NO><REV_AT_EPOCH>3122</REV_AT_EPOCH><BSTAR>-.1E+1</BSTAR><MEAN_MOTION_DOT>-.1026518E-1</MEAN_MOTION_DOT><MEAN_MOTION_DDOT>0</MEAN_MOTION_DDOT></tleParameters></data></segment></body></omm>

</ndm>
